{
  "type": "FeatureCollection",
  "features": [
    {
      "type": "Feature",
      "properties": {
        "norad_id": 66835,
        "name": "STARLINK-35890",
        "group": "last-30-days",
        "lat": 38.84989134789061,
        "lon": -35.43342424152239,
        "alt_km": 407.2763770374859,
        "timestamp": "2025-12-26T03:50:10.808038+00:00",
        "meta_object_name": "STARLINK-35890",
        "meta_object_id": "2025-280Q",
        "meta_epoch": "2025-12-25T19:30:44.496000",
        "meta_mean_motion": 15.52557752,
        "meta_eccentricity": 0.0003424,
        "meta_inclination": 70.0006,
        "meta_ra_of_asc_node": 162.5756,
        "meta_arg_of_pericenter": 275.6014,
        "meta_mean_anomaly": 84.4782,
        "meta_ephemeris_type": 0,
        "meta_classification_type": "U",
        "meta_norad_cat_id": 66835,
        "meta_element_set_no": 999,
        "meta_rev_at_epoch": 496,
        "meta_bstar": 0.0016585,
        "meta_mean_motion_dot": 0.00103344,
        "meta_mean_motion_ddot": 0,
        "tle_line1": "1 66835U 25280Q   25359.81301500  .00103344  00000+0  16585-2 0  9998",
        "tle_line2": "2 66835  70.0006 162.5756 0003424 275.6014  84.4782 15.52557752  4969"
      },
      "geometry": {
        "type": "Point",
        "coordinates": [
          -35.43342424152239,
          38.84989134789061
        ]
      }
    },
    {
      "type": "Feature",
      "properties": {
        "norad_id": 66836,
        "name": "STARLINK-35838",
        "group": "last-30-days",
        "lat": 37.12525771222699,
        "lon": -34.38079910977298,
        "alt_km": 407.5274121731063,
        "timestamp": "2025-12-26T03:50:10.808049+00:00",
        "meta_object_name": "STARLINK-35838",
        "meta_object_id": "2025-280R",
        "meta_epoch": "2025-12-25T19:30:14.819328",
        "meta_mean_motion": 15.52556043,
        "meta_eccentricity": 0.0003481,
        "meta_inclination": 70.0008,
        "meta_ra_of_asc_node": 162.5739,
        "meta_arg_of_pericenter": 275.1828,
        "meta_mean_anomaly": 84.8962,
        "meta_ephemeris_type": 0,
        "meta_classification_type": "U",
        "meta_norad_cat_id": 66836,
        "meta_element_set_no": 999,
        "meta_rev_at_epoch": 496,
        "meta_bstar": 0.0015486,
        "meta_mean_motion_dot": 0.00096398,
        "meta_mean_motion_ddot": 0,
        "tle_line1": "1 66836U 25280R   25359.81267152  .00096398  00000+0  15486-2 0  9992",
        "tle_line2": "2 66836  70.0008 162.5739 0003481 275.1828  84.8962 15.52556043  4960"
      },
      "geometry": {
        "type": "Point",
        "coordinates": [
          -34.38079910977298,
          37.12525771222699
        ]
      }
    },
    {
      "type": "Feature",
      "properties": {
        "norad_id": 66837,
        "name": "STARLINK-35729",
        "group": "last-30-days",
        "lat": 35.379636843987505,
        "lon": -33.36829126076338,
        "alt_km": 407.77013526619885,
        "timestamp": "2025-12-26T03:50:10.808062+00:00",
        "meta_object_name": "STARLINK-35729",
        "meta_object_id": "2025-280S",
        "meta_epoch": "2025-12-25T19:29:45.104640",
        "meta_mean_motion": 15.52561593,
        "meta_eccentricity": 0.0003619,
        "meta_inclination": 70.0008,
        "meta_ra_of_asc_node": 162.5726,
        "meta_arg_of_pericenter": 274.5095,
        "meta_mean_anomaly": 85.5678,
        "meta_ephemeris_type": 0,
        "meta_classification_type": "U",
        "meta_norad_cat_id": 66837,
        "meta_element_set_no": 999,
        "meta_rev_at_epoch": 496,
        "meta_bstar": 0.0015748,
        "meta_mean_motion_dot": 0.0009807,
        "meta_mean_motion_ddot": 0,
        "tle_line1": "1 66837U 25280S   25359.81232760  .00098070  00000+0  15748-2 0  9990",
        "tle_line2": "2 66837  70.0008 162.5726 0003619 274.5095  85.5678 15.52561593  4967"
      },
      "geometry": {
        "type": "Point",
        "coordinates": [
          -33.36829126076338,
          35.379636843987505
        ]
      }
    },
    {
      "type": "Feature",
      "properties": {
        "norad_id": 66838,
        "name": "STARLINK-35886",
        "group": "last-30-days",
        "lat": 31.939231779447127,
        "lon": -31.507049822802088,
        "alt_km": 408.2495850842224,
        "timestamp": "2025-12-26T03:50:10.808073+00:00",
        "meta_object_name": "STARLINK-35886",
        "meta_object_id": "2025-280T",
        "meta_epoch": "2025-12-25T19:28:45.821280",
        "meta_mean_motion": 15.5252339,
        "meta_eccentricity": 0.0003362,
        "meta_inclination": 70.001,
        "meta_ra_of_asc_node": 162.5696,
        "meta_arg_of_pericenter": 273.2183,
        "meta_mean_anomaly": 86.8619,
        "meta_ephemeris_type": 0,
        "meta_classification_type": "U",
        "meta_norad_cat_id": 66838,
        "meta_element_set_no": 999,
        "meta_rev_at_epoch": 496,
        "meta_bstar": 0.00085055,
        "meta_mean_motion_dot": 0.00052514,
        "meta_mean_motion_ddot": 0,
        "tle_line1": "1 66838U 25280T   25359.81164145  .00052514  00000+0  85055-3 0  9994",
        "tle_line2": "2 66838  70.0010 162.5696 0003362 273.2183  86.8619 15.52523390  4968"
      },
      "geometry": {
        "type": "Point",
        "coordinates": [
          -31.507049822802088,
          31.939231779447127
        ]
      }
    },
    {
      "type": "Feature",
      "properties": {
        "norad_id": 66839,
        "name": "STARLINK-35717",
        "group": "last-30-days",
        "lat": 33.67056767564505,
        "lon": -32.42323420477902,
        "alt_km": 407.9059232852178,
        "timestamp": "2025-12-26T03:50:10.808083+00:00",
        "meta_object_name": "STARLINK-35717",
        "meta_object_id": "2025-280U",
        "meta_epoch": "2025-12-25T19:29:15.572256",
        "meta_mean_motion": 15.52543074,
        "meta_eccentricity": 0.0003337,
        "meta_inclination": 70.0009,
        "meta_ra_of_asc_node": 162.571,
        "meta_arg_of_pericenter": 272.1705,
        "meta_mean_anomaly": 87.91,
        "meta_ephemeris_type": 0,
        "meta_classification_type": "U",
        "meta_norad_cat_id": 66839,
        "meta_element_set_no": 999,
        "meta_rev_at_epoch": 496,
        "meta_bstar": 0.0010471,
        "meta_mean_motion_dot": 0.00064834,
        "meta_mean_motion_ddot": 0,
        "tle_line1": "1 66839U 25280U   25359.81198579  .00064834  00000+0  10471-2 0  9990",
        "tle_line2": "2 66839  70.0009 162.5710 0003337 272.1705  87.9100 15.52543074  4962"
      },
      "geometry": {
        "type": "Point",
        "coordinates": [
          -32.42323420477902,
          33.67056767564505
        ]
      }
    },
    {
      "type": "Feature",
      "properties": {
        "norad_id": 66840,
        "name": "STARLINK-35837",
        "group": "last-30-days",
        "lat": 30.138270709934517,
        "lon": -30.592995331067968,
        "alt_km": 408.2989905164677,
        "timestamp": "2025-12-26T03:50:10.808093+00:00",
        "meta_object_name": "STARLINK-35837",
        "meta_object_id": "2025-280V",
        "meta_epoch": "2025-12-25T19:28:16.239648",
        "meta_mean_motion": 15.52554185,
        "meta_eccentricity": 0.0003313,
        "meta_inclination": 70.0009,
        "meta_ra_of_asc_node": 162.5688,
        "meta_arg_of_pericenter": 272.5156,
        "meta_mean_anomaly": 87.5652,
        "meta_ephemeris_type": 0,
        "meta_classification_type": "U",
        "meta_norad_cat_id": 66840,
        "meta_element_set_no": 999,
        "meta_rev_at_epoch": 496,
        "meta_bstar": 0.0012358,
        "meta_mean_motion_dot": 0.00076693,
        "meta_mean_motion_ddot": 0,
        "tle_line1": "1 66840U 25280V   25359.81129907  .00076693  00000+0  12358-2 0  9993",
        "tle_line2": "2 66840  70.0009 162.5688 0003313 272.5156  87.5652 15.52554185  4969"
      },
      "geometry": {
        "type": "Point",
        "coordinates": [
          -30.592995331067968,
          30.138270709934517
        ]
      }
    },
    {
      "type": "Feature",
      "properties": {
        "norad_id": 66841,
        "name": "STARLINK-35715",
        "group": "last-30-days",
        "lat": 28.35750965557151,
        "lon": -29.72511091573422,
        "alt_km": 408.5900704637452,
        "timestamp": "2025-12-26T03:50:10.808102+00:00",
        "meta_object_name": "STARLINK-35715",
        "meta_object_id": "2025-280W",
        "meta_epoch": "2025-12-25T17:54:59.759136",
        "meta_mean_motion": 15.52550254,
        "meta_eccentricity": 0.0003385,
        "meta_inclination": 70.0008,
        "meta_ra_of_asc_node": 162.7437,
        "meta_arg_of_pericenter": 274.3901,
        "meta_mean_anomaly": 85.6899,
        "meta_ephemeris_type": 0,
        "meta_classification_type": "U",
        "meta_norad_cat_id": 66841,
        "meta_element_set_no": 999,
        "meta_rev_at_epoch": 495,
        "meta_bstar": 0.0012512,
        "meta_mean_motion_dot": 0.00077649,
        "meta_mean_motion_ddot": 0,
        "tle_line1": "1 66841U 25280W   25359.74652499  .00077649  00000+0  12512-2 0  9997",
        "tle_line2": "2 66841  70.0008 162.7437 0003385 274.3901  85.6899 15.52550254  4954"
      },
      "geometry": {
        "type": "Point",
        "coordinates": [
          -29.72511091573422,
          28.35750965557151
        ]
      }
    }
  ]
}